AXCTe3acf3cb-7a51-4e22-afac-a69215d718a5
HFFTYFRTYPE:Google Pixel 9a 16
HFRFWFIRMWAREVERSION:0.9.12.6
HFPRSPRESSALTSENSOR:Goermicro 1
HFPLTPILOTINCHARGE:Edvin 
HOSITSite:?
HFCCLCOMPETITIONCLASS:FAI-3
HFGTYGLIDERTYPE:PHI Beat
HODTM100GPSDATUM:WGS-84
HFALPALTPRESSURE:ISA
HFALG:GEO
HFDTEDATE:030826,02
LXCTDEVICE eyJhcHAiOnsibmFtZSI6IlhDVHJhY2siLCJ2ZXJzaW9uQ29kZSI6OTEyNjAsInZlc
LXCTDEVICE nNpb25OYW1lIjoiMC45LjEyLjYifSwiZGV2aWNlIjp7ImJ1aWxkSWQiOiJDUDFBLj
LXCTDEVICE I2MDUwNS4wMDUiLCJjcHVBQkkiOiJhcm02NC12OGEiLCJkZXZRdWV1ZUJ1aWxkIjo
LXCTDEVICE iZjIzYWFmMTQ4ZTVmYTBjYzBhMDUwM2VhODE2NTk3YzliYzQ4MDgwZCIsImRldmlj
LXCTDEVICE ZVN0cmluZyI6Ikdvb2dsZSBQaXhlbCA5YSAxNiIsImRpc3BsYXkiOnsiaCI6MjQyN
LXCTDEVICE CwibW0iOjE2LjUzNTQzMywidyI6MTA4MH0sImZpbmdlcnByaW50IjoiZ29vZ2xlL3
LXCTDEVICE RlZ3UvdGVndToxNi9DUDFBLjI2MDUwNS4wMDUvMTUwODE5MDY6dXNlci9yZWxlYXN
LXCTDEVICE lLWtleXMiLCJoYXJkd2FyZSI6InRlZ3UiLCJtYW51ZmFjdHVyZXIiOiJHb29nbGUi
LXCTDEVICE LCJtZW1vcnkiOnsiYWR2ZXJ0aXNlZE1lbSI6ODU4OTkzNDU5MiwiYXZhaWxNZW0iO
LXCTDEVICE jIxMjQxOTM3OTIsImZvcmVncm91bmRBcHBUaHJlc2hvbGQiOjc1NDk3NDcyLCJsb3
LXCTDEVICE dNZW1vcnkiOmZhbHNlLCJ0aHJlc2hvbGQiOjIyNjQ5MjQxNiwidG90YWxNZW0iOjc
LXCTDEVICE 5Mzg4MTM5NTJ9LCJtb2RlbCI6IlBpeGVsIDlhIiwicHJvZHVjdCI6InRlZ3UifSwi
LXCTDEVICE ZGV2aWNlSWQiOiJlM2FjZjNjYi03YTUxLTRlMjItYWZhYy1hNjkyMTVkNzE4YTUiL
LXCTDEVICE CJvcyI6eyJzZGsiOjM2LCJ0aW1lem9uZSI6IkV1cm9wZS9TdG9ja2hvbG0iLCJ0eX
LXCTDEVICE BlIjoiQW5kcm9pZCIsInZlcnNpb24iOiIxNiJ9fQ==
LXCTSENSOR Sensors: GPS: i0 NMEA; S.LSI,K041,SPOTNAV_4.15.4_13_251118_R1_299
LXCTSENSOR 506 Baro: i0 Goermicro 1
I023636LAD3737LOD
LXCTEARTHMODEL WGS84
C0308260837340000000000-2 Competition task
C5714181N01207116ETAKEOFF ?
C0000000N00000000ELANDING
B0837345714175N01207127EA-00470000070
LXCTREPORTEDALT GPS:-12, BARO:-47
B0837355714174N01207127EA-00470000061
LXCTREPORTEDALT GPS:-10, BARO:-47
B0837365714174N01207127EA-00480000092
LXCTREPORTEDALT GPS:-5, BARO:-48
B0837375714176N01207126EA-00470000009
LXCTREPORTEDALT GPS:-4, BARO:-47
B0837385714177N01207126EA-00470000004
LXCTREPORTEDALT GPS:-1, BARO:-47
B0837395714175N01207127EA-00470000174
B0837405714175N01207125EA-00470000046
B0837415714174N01207126EA-00470000091
LXCTREPORTEDALT GPS:-2, BARO:-47
B0837425714175N01207125EA-00470000457
B0837435714175N01207126EA-00470000422
B0837445714176N01207125EA-00470000776
B0837455714176N01207126EA-00470000879
B0837465714176N01207127EA-00470000832
B0837475714175N01207128EA-00470000880
B0837485714175N01207129EA-00470000917
B0837495714174N01207129EA-00470000888
B0837505714174N01207129EA-00470000865
B0837515714174N01207129EA-00470000833
B0837525714175N01207128EA-00470000804
B0837535714175N01207127EA-00470000921
B0837545714175N01207123EA-00470000711
B0837555714175N01207121EA-00470000786
B0837565714176N01207120EA-00470000614
B0837575714175N01207119EA-00470000549
B0837585714175N01207119EA-00470000412
B0837595714175N01207121EA-00470000533
B0838005714176N01207120EA-00470000508
B0838015714176N01207120EA-00470000573
B0838025714177N01207119EA-00470000453
B0838035714179N01207118EA-00470000415
B0838045714179N01207117EA-00470000451
B0838055714180N01207116EA-00470000534
B0838065714180N01207115EA-00490000531
B0838075714179N01207111EA-00470000386
B0838085714179N01207110EA-00470000295
B0838095714180N01207110EA-00500000140
B0838105714180N01207110EA-00450000147
B0838115714181N01207110EA-00470000005
B0838125714180N01207111EA-00470000196
B0838135714180N01207112EA-00470000180
B0838145714181N01207111EA-00470000104
B0838155714180N01207111EA-00470000192
B0838165714180N01207110EA-00470000191
B0838175714180N01207109EA-00470000177
B0838185714179N01207110EA-00470000165
B0838195714179N01207111EA-00470000204
B0838205714178N01207110EA-00470000159
B0838215714179N01207110EA-00470000129
B0838225714179N01207110EA-00480000188
B0838235714180N01207110EA-00470000142
B0838245714180N01207110EV-00470000142
B0838255714180N01207109EA-00470000126
B0838265714180N01207109EA-00470000153
B0838275714180N01207109EV-00470000153
B0838285714180N01207109EV-00470000153
B0838295714183N01207108EA-00470000296
B0838305714184N01207110EA-00470000201
B0838315714181N01207117EA-00470000208
B0838325714183N01207118EA-00470000417
B0838335714184N01207119EA-00470000678
B0838345714184N01207121EA-00470000693
B0838355714185N01207124EA-00470000532
B0838365714185N01207125EA-00470000434
B0838375714186N01207126EA-00470000412
B0838385714186N01207126EA-00470000580
B0838395714187N01207124EA-00470000429
B0838405714187N01207125EA-00470000247
B0838415714187N01207124EA-00470000308
B0838425714186N01207124EA-00470000275
B0838435714185N01207124EA-00470000092
LXCTREPORTEDALT GPS:-1, BARO:-47
B0838445714185N01207123EA-00470000055
LXCTREPORTEDALT GPS:-2, BARO:-47
B0838455714185N01207123EA-00470000050
LXCTREPORTEDALT GPS:-1, BARO:-47
B0838465714185N01207123EA-00470000070
B0838475714186N01207122EA-00470000254
B0838485714187N01207121EA-00470000484
B0838495714188N01207120EA-00470000457
B0838505714188N01207120EV-00470000457
B0838515714189N01207124EA-00480000618
B0838525714190N01207125EA-00480000730
B0838535714191N01207123EA-00470000724
B0838545714192N01207124EA-00470000202
B0838555714192N01207123EA-00470000067
B0838565714192N01207124EA-00470000093
LXCTREPORTEDALT GPS:-4, BARO:-47
B0838575714193N01207124EA-00470000045
LXCTREPORTEDALT GPS:-8, BARO:-47
B0838585714195N01207123EA-00470000048
LXCTREPORTEDALT GPS:-13, BARO:-47
B0838595714195N01207123EV-00470000048
LXCTREPORTEDALT GPS:-13, BARO:-47
B0839005714195N01207123EV-00470000048
LXCTREPORTEDALT GPS:-13, BARO:-47
B0839015714195N01207123EV-00470000048
LXCTREPORTEDALT GPS:-13, BARO:-47
B0839025714195N01207123EV-00480000048
LXCTREPORTEDALT GPS:-13, BARO:-48
B0839035714193N01207125EA-00470000060
LXCTREPORTEDALT GPS:-34, BARO:-47
B0839045714189N01207129EA-00470000075
LXCTREPORTEDALT GPS:-34, BARO:-47
B0839055714190N01207131EA-00470000007
LXCTREPORTEDALT GPS:-33, BARO:-47
B0839065714189N01207135EA-00480000093
LXCTREPORTEDALT GPS:-34, BARO:-48
B0839075714190N01207134EA-00470000076
LXCTREPORTEDALT GPS:-34, BARO:-47
B0839085714191N01207133EA-00470000043
LXCTREPORTEDALT GPS:-33, BARO:-47
B0839095714192N01207131EA-00470000009
LXCTREPORTEDALT GPS:-33, BARO:-47
B0839105714191N01207131EA-00470000025
LXCTREPORTEDALT GPS:-30, BARO:-47
B0839115714190N01207130EA-00480000038
LXCTREPORTEDALT GPS:-30, BARO:-48
B0839125714190N01207129EA-00480000073
LXCTREPORTEDALT GPS:-26, BARO:-48
B0839135714190N01207128EA-00480000038
LXCTREPORTEDALT GPS:-23, BARO:-48
B0839145714188N01207131EA-00480000057
LXCTREPORTEDALT GPS:-19, BARO:-48
B0839155714186N01207131EA-00500000083
LXCTREPORTEDALT GPS:-13, BARO:-50
B0839165714187N01207128EA-00500000002
LXCTREPORTEDALT GPS:-11, BARO:-50
B0839175714187N01207126EA-00480000043
LXCTREPORTEDALT GPS:-8, BARO:-48
B0839185714189N01207125EA-00510000005
LXCTREPORTEDALT GPS:-6, BARO:-51
B0839195714189N01207124EA-00500000081
LXCTREPORTEDALT GPS:-2, BARO:-50
B0839205714189N01207123EA-00510000042
LXCTREPORTEDALT GPS:-2, BARO:-51
B0839215714188N01207122EA-00500000040
LXCTREPORTEDALT GPS:-3, BARO:-50
B0839225714189N01207121EA-00490000001
LXCTREPORTEDALT GPS:-3, BARO:-49
B0839235714189N01207119EA-00490000029
LXCTREPORTEDALT GPS:-1, BARO:-49
B0839245714188N01207119EA-00500000087
LXCTREPORTEDALT GPS:-1, BARO:-50
B0839255714188N01207121EA-00500000051
LXCTREPORTEDALT GPS:-2, BARO:-50
B0839265714188N01207120EA-00490000057
LXCTREPORTEDALT GPS:-2, BARO:-49
B0839275714188N01207121EA-00490000081
LXCTREPORTEDALT GPS:-1, BARO:-49
B0839285714188N01207121EA-00490000097
LXCTREPORTEDALT GPS:-1, BARO:-49
B0839295714188N01207121EA-00500000032
LXCTREPORTEDALT GPS:-2, BARO:-50
B0839305714188N01207120EA-00500000028
LXCTREPORTEDALT GPS:-3, BARO:-50
B0839315714187N01207120EA-00480000097
LXCTREPORTEDALT GPS:-3, BARO:-48
B0839325714187N01207121EA-00490000050
LXCTREPORTEDALT GPS:-4, BARO:-49
B0839335714187N01207121EA-00520000004
LXCTREPORTEDALT GPS:-4, BARO:-52
B0839345714186N01207121EA-00530000068
LXCTREPORTEDALT GPS:-3, BARO:-53
B0839355714185N01207121EA-00520000078
LXCTREPORTEDALT GPS:-2, BARO:-52
B0839365714184N01207121EA-00490000038
LXCTREPORTEDALT GPS:-2, BARO:-49
B0839375714183N01207121EA-00470000067
LXCTREPORTEDALT GPS:-3, BARO:-47
B0839385714182N01207121EA-00470000095
LXCTREPORTEDALT GPS:-3, BARO:-47
B0839395714182N01207121EA-00490000010
LXCTREPORTEDALT GPS:-3, BARO:-49
B0839405714181N01207120EA-00480000045
LXCTREPORTEDALT GPS:-2, BARO:-48
B0839415714181N01207119EA-00500000018
LXCTREPORTEDALT GPS:-2, BARO:-50
B0839425714180N01207119EA-00520000066
LXCTREPORTEDALT GPS:-3, BARO:-52
B0839435714180N01207120EA-00490000001
LXCTREPORTEDALT GPS:-3, BARO:-49
B0839445714179N01207121EA-00470000037
LXCTREPORTEDALT GPS:-3, BARO:-47
B0839455714178N01207123EA-00490000026
LXCTREPORTEDALT GPS:-3, BARO:-49
B0839465714177N01207125EA-00470000005
LXCTREPORTEDALT GPS:-3, BARO:-47
B0839475714175N01207127EA-00460000085
LXCTREPORTEDALT GPS:-3, BARO:-46
B0839485714175N01207127EV-00470000085
LXCTREPORTEDALT GPS:-3, BARO:-47
B0839495714175N01207127EV-00480000085
LXCTREPORTEDALT GPS:-3, BARO:-48
B0839505714175N01207127EV-00480000085
LXCTREPORTEDALT GPS:-3, BARO:-48
B0839515714175N01207127EV-00470000085
LXCTREPORTEDALT GPS:-3, BARO:-47
B0839525714175N01207127EV-00470000085
LXCTREPORTEDALT GPS:-3, BARO:-47
B0839535714175N01207127EV-00470000085
LXCTREPORTEDALT GPS:-3, BARO:-47
B0839545714175N01207127EV-00470000085
LXCTREPORTEDALT GPS:-3, BARO:-47
B0839555714175N01207127EV-00470000085
LXCTREPORTEDALT GPS:-3, BARO:-47
B0839565714175N01207127EV-00470000085
LXCTREPORTEDALT GPS:-3, BARO:-47
B0839575714175N01207127EV-00470000085
LXCTREPORTEDALT GPS:-3, BARO:-47
B0839585714175N01207127EV-00570000085
LXCTREPORTEDALT GPS:-3, BARO:-57
B0839595714175N01207127EV-00490000085
LXCTREPORTEDALT GPS:-3, BARO:-49
B0840005714175N01207127EV-00440000085
LXCTREPORTEDALT GPS:-3, BARO:-44
B0840015714175N01207127EV-00480000085
LXCTREPORTEDALT GPS:-3, BARO:-48
B0840025714175N01207127EV-00470000085
LXCTREPORTEDALT GPS:-3, BARO:-47
B0840035714175N01207127EV-00470000085
LXCTREPORTEDALT GPS:-3, BARO:-47
B0840045714177N01207130EA-00470000041
LXCTSTATS eyJzdGF0cyI6eyJHUFMiOnsiYWx0Rml4TWV0aG9kIjp7ImRpZmZBcGlHZW9pZCI6MC
LXCTSTATS wiZGlmZkFwaU5vQ29ycmVjdGlvbiI6MH0sImFwaUNudCI6MCwiYmVhcmluZ0NvbXB1
LXCTSTATS dGVkIjowLCJubWVhQ250IjozNjQxLCJzcGVlZENvbXB1dGVkIjowfSwib3B0aVN0YX
LXCTSTATS RzIjp7Im9wdGlMQ291bnQiOjEyMTIsIm9wdGlUaW1lTW1zIjozNzY0MjQwOTc1fX19
LXCTFAICIVLCOMPLIANT true
G4617B4F6C871F9506F42D7C0CE8B9E0686B6D5CA835036B3C023BC0CE7A661E3
G17B43633E49F7B3CAABD6EABF0FE4B9EBE6FD4392813FC1B2C6BACD46E2D4B7B
G389C04AEB2D1507928BB51219F935A884A54A4FF920D01576C370DED2AB881CA
G43F7A24387839EC8E92F277002359F3D9DC253DF08F99DD2CC653AC0C005CF27
